{
  "type": "FeatureCollection",
  "features": [
    {
      "type": "Feature",
      "properties": {
        "norad_id": 40376,
        "name": "SMAP",
        "group": "resource",
        "lat": -81.85588090818221,
        "lon": 93.68818596741417,
        "alt_km": 690.5759625523215,
        "timestamp": "2025-12-22T05:49:03.139468+00:00",
        "meta_object_name": "SMAP",
        "meta_object_id": "2015-003A",
        "meta_epoch": "2025-12-21T18:44:34.621728",
        "meta_mean_motion": 14.63355452,
        "meta_eccentricity": 0.0001228,
        "meta_inclination": 98.1288,
        "meta_ra_of_asc_node": 0.3745,
        "meta_arg_of_pericenter": 91.2075,
        "meta_mean_anomaly": 268.9268,
        "meta_ephemeris_type": 0,
        "meta_classification_type": "U",
        "meta_norad_cat_id": 40376,
        "meta_element_set_no": 999,
        "meta_rev_at_epoch": 58167,
        "meta_bstar": 9.0813e-05,
        "meta_mean_motion_dot": 4.22e-06,
        "meta_mean_motion_ddot": 0,
        "tle_line1": "1 40376U 15003A   25355.78095627  .00000422  00000+0  90813-4 0  9995",
        "tle_line2": "2 40376  98.1288   0.3745 0001228  91.2075 268.9268 14.63355452581670"
      },
      "geometry": {
        "type": "Point",
        "coordinates": [
          93.68818596741417,
          -81.85588090818221
        ]
      }
    },
    {
      "type": "Feature",
      "properties": {
        "norad_id": 40536,
        "name": "KOMPSAT-3A",
        "group": "resource",
        "lat": -19.817031784732965,
        "lon": 148.32867527752197,
        "alt_km": 439.1044882328342,
        "timestamp": "2025-12-22T05:49:03.139478+00:00",
        "meta_object_name": "KOMPSAT-3A",
        "meta_object_id": "2015-014A",
        "meta_epoch": "2025-12-21T21:10:45.871104",
        "meta_mean_motion": 15.44255996,
        "meta_eccentricity": 0.0005543,
        "meta_inclination": 97.6796,
        "meta_ra_of_asc_node": 330.7358,
        "meta_arg_of_pericenter": 106.6596,
        "meta_mean_anomaly": 253.526,
        "meta_ephemeris_type": 0,
        "meta_classification_type": "U",
        "meta_norad_cat_id": 40536,
        "meta_element_set_no": 999,
        "meta_rev_at_epoch": 59436,
        "meta_bstar": 0.00037513,
        "meta_mean_motion_dot": 0.00017177,
        "meta_mean_motion_ddot": 0,
        "tle_line1": "1 40536U 15014A   25355.88247536  .00017177  00000+0  37513-3 0  9996",
        "tle_line2": "2 40536  97.6796 330.7358 0005543 106.6596 253.5260 15.44255996594363"
      },
      "geometry": {
        "type": "Point",
        "coordinates": [
          148.32867527752197,
          -19.817031784732965
        ]
      }
    },
    {
      "type": "Feature",
      "properties": {
        "norad_id": 40697,
        "name": "SENTINEL-2A",
        "group": "resource",
        "lat": 71.29837258291771,
        "lon": -84.89101416223647,
        "alt_km": 781.399408207225,
        "timestamp": "2025-12-22T05:49:03.139489+00:00",
        "meta_object_name": "SENTINEL-2A",
        "meta_object_id": "2015-028A",
        "meta_epoch": "2025-12-21T19:15:03.496320",
        "meta_mean_motion": 14.3080883,
        "meta_eccentricity": 0.0001076,
        "meta_inclination": 98.5741,
        "meta_ra_of_asc_node": 68.2076,
        "meta_arg_of_pericenter": 87.6515,
        "meta_mean_anomaly": 272.4791,
        "meta_ephemeris_type": 0,
        "meta_classification_type": "U",
        "meta_norad_cat_id": 40697,
        "meta_element_set_no": 999,
        "meta_rev_at_epoch": 54836,
        "meta_bstar": 7.5727e-05,
        "meta_mean_motion_dot": 1.55e-06,
        "meta_mean_motion_ddot": 0,
        "tle_line1": "1 40697U 15028A   25355.80212380  .00000155  00000+0  75727-4 0  9998",
        "tle_line2": "2 40697  98.5741  68.2076 0001076  87.6515 272.4791 14.30808830548360"
      },
      "geometry": {
        "type": "Point",
        "coordinates": [
          -84.89101416223647,
          71.29837258291771
        ]
      }
    },
    {
      "type": "Feature",
      "properties": {
        "norad_id": 40701,
        "name": "GAOFEN-8",
        "group": "resource",
        "lat": -57.752219181141754,
        "lon": -17.520338756923483,
        "alt_km": 462.20068247692416,
        "timestamp": "2025-12-22T05:49:03.139500+00:00",
        "meta_object_name": "GAOFEN-8",
        "meta_object_id": "2015-030A",
        "meta_epoch": "2025-12-21T20:58:55.193952",
        "meta_mean_motion": 15.38835011,
        "meta_eccentricity": 0.0012022,
        "meta_inclination": 97.6904,
        "meta_ra_of_asc_node": 174.4614,
        "meta_arg_of_pericenter": 107.2331,
        "meta_mean_anomaly": 253.023,
        "meta_ephemeris_type": 0,
        "meta_classification_type": "U",
        "meta_norad_cat_id": 40701,
        "meta_element_set_no": 999,
        "meta_rev_at_epoch": 58411,
        "meta_bstar": 0.00044723,
        "meta_mean_motion_dot": 0.00017147,
        "meta_mean_motion_ddot": 0,
        "tle_line1": "1 40701U 15030A   25355.87424993  .00017147  00000+0  44723-3 0  9999",
        "tle_line2": "2 40701  97.6904 174.4614 0012022 107.2331 253.0230 15.38835011584119"
      },
      "geometry": {
        "type": "Point",
        "coordinates": [
          -17.520338756923483,
          -57.752219181141754
        ]
      }
    },
    {
      "type": "Feature",
      "properties": {
        "norad_id": 40718,
        "name": "CARBONITE 1 (CBNT-1)",
        "group": "resource",
        "lat": 57.91312970156444,
        "lon": 164.50624465959942,
        "alt_km": 615.2607778638021,
        "timestamp": "2025-12-22T05:49:03.139511+00:00",
        "meta_object_name": "CARBONITE 1 (CBNT-1)",
        "meta_object_id": "2015-032D",
        "meta_epoch": "2025-12-21T19:50:08.579616",
        "meta_mean_motion": 14.82783282,
        "meta_eccentricity": 0.0015041,
        "meta_inclination": 97.6395,
        "meta_ra_of_asc_node": 176.4701,
        "meta_arg_of_pericenter": 151.7377,
        "meta_mean_anomaly": 208.4656,
        "meta_ephemeris_type": 0,
        "meta_classification_type": "U",
        "meta_norad_cat_id": 40718,
        "meta_element_set_no": 999,
        "meta_rev_at_epoch": 56305,
        "meta_bstar": 0.00022646,
        "meta_mean_motion_dot": 1.784e-05,
        "meta_mean_motion_ddot": 0,
        "tle_line1": "1 40718U 15032D   25355.82648819  .00001784  00000+0  22646-3 0  9999",
        "tle_line2": "2 40718  97.6395 176.4701 0015041 151.7377 208.4656 14.82783282563054"
      },
      "geometry": {
        "type": "Point",
        "coordinates": [
          164.50624465959942,
          57.91312970156444
        ]
      }
    },
    {
      "type": "Feature",
      "properties": {
        "norad_id": 40878,
        "name": "YAOGAN-27",
        "group": "resource",
        "lat": -3.5181567663640667,
        "lon": 164.80439764296796,
        "alt_km": 1201.9549330952532,
        "timestamp": "2025-12-22T05:49:03.139556+00:00",
        "meta_object_name": "YAOGAN-27",
        "meta_object_id": "2015-040A",
        "meta_epoch": "2025-12-21T21:35:21.735168",
        "meta_mean_motion": 13.16058919,
        "meta_eccentricity": 0.0007581,
        "meta_inclination": 100.1006,
        "meta_ra_of_asc_node": 345.105,
        "meta_arg_of_pericenter": 263.9678,
        "meta_mean_anomaly": 96.0572,
        "meta_ephemeris_type": 0,
        "meta_classification_type": "U",
        "meta_norad_cat_id": 40878,
        "meta_element_set_no": 999,
        "meta_rev_at_epoch": 49434,
        "meta_bstar": -0.0010104,
        "meta_mean_motion_dot": -4.26e-06,
        "meta_mean_motion_ddot": 0,
        "tle_line1": "1 40878U 15040A   25355.89955712 -.00000426  00000+0 -10104-2 0  9994",
        "tle_line2": "2 40878 100.1006 345.1050 0007581 263.9678  96.0572 13.16058919494343"
      },
      "geometry": {
        "type": "Point",
        "coordinates": [
          164.80439764296796,
          -3.5181567663640667
        ]
      }
    },
    {
      "type": "Feature",
      "properties": {
        "norad_id": 40894,
        "name": "GAOFEN-9 01",
        "group": "resource",
        "lat": -31.541194973945228,
        "lon": 39.52111415354769,
        "alt_km": 611.912961906919,
        "timestamp": "2025-12-22T05:49:03.139573+00:00",
        "meta_object_name": "GAOFEN-9 01",
        "meta_object_id": "2015-047A",
        "meta_epoch": "2025-12-21T20:14:26.101824",
        "meta_mean_motion": 14.82442807,
        "meta_eccentricity": 0.0027651,
        "meta_inclination": 97.653,
        "meta_ra_of_asc_node": 34.4053,
        "meta_arg_of_pericenter": 4.9686,
        "meta_mean_anomaly": 355.1797,
        "meta_ephemeris_type": 0,
        "meta_classification_type": "U",
        "meta_norad_cat_id": 40894,
        "meta_element_set_no": 999,
        "meta_rev_at_epoch": 55391,
        "meta_bstar": 0.00011597,
        "meta_mean_motion_dot": 8.84e-06,
        "meta_mean_motion_ddot": 0,
        "tle_line1": "1 40894U 15047A   25355.84335766  .00000884  00000+0  11597-3 0  9999",
        "tle_line2": "2 40894  97.6530  34.4053 0027651   4.9686 355.1797 14.82442807553910"
      },
      "geometry": {
        "type": "Point",
        "coordinates": [
          39.52111415354769,
          -31.541194973945228
        ]
      }
    }
  ]
}